{
  "norad_id": 53594,
  "name": "STARLINK-4681",
  "history": [
    {
      "epoch": "2026-03-28T22:00:01.999584Z",
      "apogee_km": 488.3031055357669,
      "perigee_km": 486.87887892105846,
      "latitude_deg": -26.45723709689754,
      "longitude_deg": -21.303721294587277,
      "height_km": 495.83086238963546,
      "semi_major_axis_km": 6865.727992228412,
      "eccentricity": 0.00010372,
      "inclination_deg": 53.219,
      "raan_deg": 156.7493,
      "arg_perigee_deg": 93.6977,
      "mean_anomaly_deg": 232.7826,
      "mean_motion_rev_day": 15.26064437
    },
    {
      "epoch": "2026-03-29T04:00:01.999584Z",
      "apogee_km": 488.081809730008,
      "perigee_km": 486.74302759336933,
      "latitude_deg": -52.3788707008866,
      "longitude_deg": 163.73953782488766,
      "height_km": 506.267790212557,
      "semi_major_axis_km": 6865.549418661688,
      "eccentricity": 9.75e-05,
      "inclination_deg": 53.2185,
      "raan_deg": 155.5965,
      "arg_perigee_deg": 89.0264,
      "mean_anomaly_deg": 171.6653,
      "mean_motion_rev_day": 15.26123977
    },
    {
      "epoch": "2026-03-30T04:00:01.999584Z",
      "apogee_km": 487.53272858862874,
      "perigee_km": 486.06637814083115,
      "latitude_deg": -1.566693736284495,
      "longitude_deg": -97.7496046391632,
      "height_km": 487.67888938156204,
      "semi_major_axis_km": 6864.93655336473,
      "eccentricity": 0.0001068,
      "inclination_deg": 53.2185,
      "raan_deg": 150.9862,
      "arg_perigee_deg": 68.9013,
      "mean_anomaly_deg": 289.2659,
      "mean_motion_rev_day": 15.26328348
    }
  ]
}